key,place_name,admin_name1,latitude,longitude,accuracy
IN/560001,Rajbhavan,Karnataka,12.2667,76.6833,
IN/560002,Chamarajendrapeta,Karnataka,12.2667,76.6833,
IN/560003,Extension,Karnataka,12.2667,76.6833,4
IN/560004,Lalbagh West,Karnataka,12.2667,76.6833,
IN/560005,Fraser Town,Karnataka,12.2667,76.6833,
IN/560007,Agaram,Karnataka,12.2667,76.6833,
IN/560008,Ulsoor Bazar,Karnataka,12.2667,76.6833,
IN/560009,N S Bureau,Karnataka,12.2667,76.6833,
IN/560010,Rajajinagar West,Karnataka,13.0333,77.55,
IN/560011,Jayanagar (Bangalore),Karnataka,13.0333,77.55,
IN/560013,Jalahalli,Karnataka,13.0333,77.55,4
IN/560014,Jalahalli East,Karnataka,13.0333,77.55,
IN/560015,Jalahalli West,Karnataka,13.0333,77.55,
IN/560016,Ramamurthynagar,Karnataka,13.0333,77.55,
IN/560017,Vimanapura,Karnataka,13.0333,77.55,
IN/560018,Chamrapet West,Karnataka,13.0333,77.55,
IN/560020,Palace Guttahalli,Karnataka,13.0499,77.1594,
IN/560021,Ramachandra Puram,Karnataka,13.0499,77.1594,
IN/560023,Magadi Road,Karnataka,13.0499,77.1594,
IN/560024,Extn Iistage,Karnataka,13.0499,77.1594,
IN/560025,Langford Town,Karnataka,13.0499,77.1594,
IN/560026,Deepanjal Nagar,Karnataka,13.0499,77.1594,
IN/560027,Sampangiramnagar,Karnataka,13.0499,77.1594,
IN/560029,S D S Sanitorim,Karnataka,13.0499,77.1594,
IN/560030,Adugodi,Karnataka,13.0499,77.1594,
IN/560032,P&T Colony,Karnataka,13.0499,77.1594,
IN/560035,Carmelaram,Karnataka,13.0499,77.1594,
IN/560037,Ramesh Nagar,Karnataka,13.0499,77.1594,
IN/560038,Indira Nagar,Karnataka,13.0499,77.1594,
IN/560040,Vijayanagar,Karnataka,13.0499,77.1594,
IN/560041,Jayanagar T Block,Karnataka,13.0499,77.1594,
IN/560042,K Kamraj Road,Karnataka,13.0499,77.1594,
IN/560045,Venkateshpura,Karnataka,13.0499,77.1594,
IN/560046,Williams Towm,Karnataka,13.0499,77.1594,
IN/560047,Ookadapalyam,Karnataka,13.0499,77.1594,
IN/560048,Mahadevapura,Karnataka,13.0499,77.1594,
IN/560049,Virgonagar,Karnataka,13.0499,77.1594,
IN/560050,Dasarahalli,Karnataka,13.0499,77.1594,
IN/560051,Old Cemetry Road,Karnataka,13.0499,77.1594,
IN/560052,Vasantanagar,Karnataka,13.0499,77.1594,
IN/560057,Dasarahalli,Karnataka,13.0499,77.1594,
IN/560058,Madivala,Karnataka,13.0499,77.1594,
IN/560059,R V Niketan,Karnataka,13.0499,77.1594,
IN/560063,Yelahanka,Karnataka,13.1075,77.6003,4
IN/560064,Yelabanka,Karnataka,13.1075,77.6003,
IN/560065,Vigyana Kendra,Karnataka,13.1075,77.6003,
IN/560066,White Field,Karnataka,13.1075,77.6003,
IN/560067,Kadugodi,Karnataka,13.1075,77.6003,
IN/560069,Jayanagar East,Karnataka,13.1075,77.6003,
IN/560070,Padmanabhanagar,Karnataka,13.0499,77.1594,
IN/560072,Nagarbhavi,Karnataka,13.0499,77.1594,
IN/560073,Nagasandra (Bangalore),Karnataka,13.0499,77.1594,
IN/560078,Jayaprakash Naryan Nagar,Karnataka,13.0499,77.1594,
IN/560079,Agrahara Dasarahalli,Karnataka,13.0499,77.1594,
IN/560080,Palace Orchards,Karnataka,13.7919,76.8042,
IN/560081,Tavarekere,Karnataka,13.7919,76.8042,4
IN/560082,Yediyur,Karnataka,13.7919,76.8042,
IN/560084,Lingarajapuram,Karnataka,13.7919,76.8042,
IN/560086,Mahalakshmipuram Layout,Karnataka,13.7919,76.8042,
IN/560087,Varthur,Karnataka,13.7919,76.8042,
IN/560097,Vidyaranyapura,Karnataka,13.0499,77.1594,
IN/561201,V G Doddi,Karnataka,13.9424,77.5299,
IN/561202,Pavagada,Karnataka,14.1,77.2667,4
IN/561206,Darinayakanapalya,Karnataka,13.9424,77.5299,
IN/561207,Bagepalli,Karnataka,13.7847,77.7931,4
IN/561212,Pathapalya,Karnataka,13.9424,77.5299,
IN/561216,Venkatapura,Karnataka,13.9424,77.5299,
IN/561217,Viduraswatha,Karnataka,13.9424,77.5299,
IN/561225,S S Ghati,Karnataka,13.9424,77.5299,
IN/561227,Sailapura,Karnataka,13.9424,77.5299,
IN/562103,Nandi,Karnataka,13.3847,77.6933,4
IN/562108,Abbur,Karnataka,13.3847,77.6933,
IN/562110,Devanahalli,Karnataka,13.3333,77.65,
IN/562118,Nandi Hills,Karnataka,13.3333,77.65,4
IN/562120,Magadi (Cpt),Karnataka,13.2655,77.7687,
IN/562122,Nandagudi,Karnataka,13.2655,77.7687,
IN/562130,Tavarekere (Magadi),Karnataka,13.2936,77.8017,
IN/562134,Vidyanagar,Karnataka,13.2936,77.8017,
IN/562135,Vijayapura,Karnataka,13.2936,77.8017,4
IN/562144,Jangamkote,Karnataka,13.2658,77.8483,4
IN/562145,Chandpura,Karnataka,13.2658,77.8483,
IN/562149,Bagal,Karnataka,13.2658,77.8483,
IN/562151,Chamarajasagar,Karnataka,13.05,77.85,
IN/562154,Jadigenahalli,Karnataka,13.05,77.85,4
IN/563115,B E M L Nagar (Kgf),Karnataka,13.2,78.0167,
IN/563117,Champion Reefs,Karnataka,13.2,78.0167,
IN/563119,V O C Nagar,Karnataka,13.2,78.0167,
IN/563120,Oorgaum East,Karnataka,13.2,78.0167,
IN/563121,Oorgaumpet,Karnataka,13.2,78.0167,
IN/563126,Dalasnur,Karnataka,13.2,78.0167,
IN/563128,Kaiwara,Karnataka,13.2,78.0167,
IN/563131,Palya,Karnataka,13.2,78.0167,
IN/563136,Tayalur,Karnataka,13.2,78.0167,
IN/563137,Tekal,Karnataka,13.2,78.0167,
IN/563138,Yeldur,Karnataka,13.2,78.0167,
IN/563157,Vemgal,Karnataka,13.2,78.0167,4
IN/565277,Pahwadi,Karnataka,13.301,77.5465,
IN/570001,K R Mohalla,Karnataka,13.3666,76.171,
IN/570004,Lakshmipuram,Karnataka,13.3666,76.171,
IN/570006,University Campus,Karnataka,13.3666,76.171,
IN/570007,Rajendranagar,Karnataka,13.3666,76.171,
IN/570008,Vidyaranya Puram,Karnataka,13.3666,76.171,
IN/570009,Jayanagar,Karnataka,13.3666,76.171,
IN/570010,Ittigegud,Karnataka,13.3666,76.171,
IN/570011,Administrative Trg Institute,Karnataka,13.3666,76.171,
IN/570013,Food Technology,Karnataka,13.3666,76.171,
IN/570014,Jayanagar Extn,Karnataka,13.3666,76.171,
IN/570018,Chaimundi Betta,Karnataka,13.3666,76.171,
IN/570019,Udayagiri Extn,Karnataka,13.3666,76.171,
IN/570020,Yadavagiri,Karnataka,13.3666,76.171,
IN/570024,M.R.Mohalla,Karnataka,13.3666,76.171,
IN/571110,Gargeshwari,Karnataka,12.0889,76.7911,
IN/571114,H D Kote,Karnataka,12.0889,76.7911,
IN/571117,Kagalyadi,Karnataka,12.0889,76.7911,
IN/571119,Tagadur,Karnataka,12.0889,76.7911,4
IN/571120,Old Sosale,Karnataka,12.2381,76.7278,
IN/571122,Talkod,Karnataka,12.2381,76.7278,
IN/571124,T Narsipur,Karnataka,12.2381,76.7278,
IN/571125,Hamapapura (H D),Karnataka,12.2381,76.7278,
IN/571138,Makode,Karnataka,12.2381,76.7278,
IN/571143,Varakodu,Karnataka,12.3872,76.6644,
IN/571147,Venkatainachatra,Karnataka,12.3872,76.6644,
IN/571149,Naganahalli,Karnataka,12.3872,76.6644,4
IN/571155,Nagavalli (Njd),Karnataka,12.2381,76.7278,
IN/571166,Kabini Colony,Karnataka,12.2381,76.7278,
IN/571167,Devanur (Nanjangud),Karnataka,12.2381,76.7278,
IN/571172,Ramanahalli,Karnataka,12.2381,76.7278,
IN/571174,Ganaganur,Karnataka,12.2381,76.7278,
IN/571178,Chandakavadi,Karnataka,12.2381,76.7278,
IN/571201,Madikeri Fort,Karnataka,12.9044,76.3917,
IN/571218,Virajpet,Karnataka,12.9044,76.3917,
IN/571220,Devarapura,Karnataka,12.9044,76.3917,
IN/571221,Makut,Karnataka,12.9044,76.3917,
IN/571222,Kaikeri,Karnataka,12.9044,76.3917,
IN/571247,Bagamandala,Karnataka,12.9044,76.3917,
IN/571251,Madapura,Karnataka,12.9044,76.3917,
IN/571258,Nagarhole,Karnataka,12.9044,76.3917,
IN/571266,Badaga,Karnataka,12.9044,76.3917,
IN/571269,Uluguli,Karnataka,12.9044,76.3917,
IN/571272,Channarayapatna,Karnataka,12.9044,76.3917,4
IN/571273,Badagabanangala,Karnataka,12.9044,76.3917,
IN/571311,Kadakola,Karnataka,12.1944,76.6631,4
IN/571313,Ramasamudra,Karnataka,12.1944,76.6631,
IN/571319,Kabbahali,Karnataka,12.1944,76.6631,
IN/571321,Udbur,Karnataka,12.129,76.7844,
IN/571325,Tandavapura,Karnataka,12.129,76.7844,
IN/571326,Vidya Peetha,Karnataka,12.129,76.7844,
IN/571327,Badanaguppe,Karnataka,12.129,76.7844,
IN/571329,Udigala,Karnataka,12.129,76.7844,
IN/571333,Ummattur,Karnataka,12.0636,76.9058,4
IN/571334,Hadinaru,Karnataka,12.0636,76.9058,
IN/571335,Yedakola,Karnataka,12.0636,76.9058,
IN/571339,Ramapura (Njd),Karnataka,12.0636,76.9058,
IN/571404,Acetate Town,Karnataka,12.2332,76.8562,
IN/571405,V C Farm,Karnataka,12.2332,76.8562,
IN/571406,Thaggahalli,Karnataka,12.2332,76.8562,
IN/571421,Halagur,Karnataka,11.7667,76.5667,
IN/571426,Old Town,Karnataka,11.7667,76.5667,
IN/571428,Maddur,Karnataka,11.7667,76.5667,4
IN/571429,Maddur R S,Karnataka,11.7667,76.5667,
IN/571432,Nagamangala,Karnataka,12.8156,76.7575,4
IN/571434,Pandavapura,Karnataka,12.5006,76.6733,4
IN/571435,Pandavapura R S,Karnataka,12.6581,76.7154,
IN/571441,Yelandur,Karnataka,12.0667,77.0333,4
IN/571444,Ramapuram Ghat,Karnataka,12.0667,77.0333,
IN/571445,Devalapura (Mys),Karnataka,12.0667,77.0333,
IN/571456,Nagarakere,Karnataka,12.2332,76.8562,
IN/571458,Ragibommanhalli,Karnataka,12.2332,76.8562,
IN/571460,Thaggahalli,Karnataka,12.2332,76.8562,
IN/571461,Agasanpura,Karnataka,12.2332,76.8562,
IN/571472,Gandhal,Karnataka,12.0167,77.25,
IN/571473,Ummadahalli,Karnataka,12.0167,77.25,
IN/571477,Sagglam,Karnataka,12.0167,77.25,
IN/571479,Lokkanahalli,Karnataka,12.0167,77.25,4
IN/571484,Palaiyam,Karnataka,12.2332,76.8562,
IN/571485,Agara,Karnataka,12.2332,76.8562,
IN/571488,Tellanur,Karnataka,12.2332,76.8562,
IN/571490,Mahadeshwara Betta,Karnataka,12.2332,76.8562,
IN/571495,Maddur (Yelandur),Karnataka,12.2332,76.8562,
IN/571501,Channapatna H O,Karnataka,12.7167,77.3,
IN/571511,Ramanagaram,Karnataka,12.7167,77.3,4
IN/571604,Saligram (Mys),Karnataka,12.3201,76.8179,
IN/571614,Haleyur,Karnataka,12.3201,76.8179,
IN/571801,Madhuvanahalli,Karnataka,12.3201,76.8179,
IN/571803,Parasegowdana Palya,Karnataka,12.3201,76.8179,
IN/571805,Nagoonahalli,Karnataka,12.3201,76.8179,
IN/571809,Mahadevapura,Karnataka,12.3201,76.8179,
IN/572101,Extension Tumkur,Karnataka,13.6417,76.9293,
IN/572112,Badavanahalli,Karnataka,13.6811,77.0658,4
IN/572116,Channakesavapuda,Karnataka,13.6811,77.0658,
IN/572124,Itakadibbanahalli,Karnataka,13.6417,76.9293,
IN/572130,K R S Agrahara Extn,Karnataka,13.6417,76.9293,
IN/572132,Madhugiri,Karnataka,13.6606,77.2092,
IN/572134,Nagasandra (Tmr),Karnataka,13.6417,76.9293,
IN/572135,Pattanaikanahalli,Karnataka,13.6417,76.9293,
IN/572136,Palavalli,Karnataka,13.6417,76.9293,
IN/572139,Tavarekere (Tmr),Karnataka,13.6417,76.9293,
IN/572140,Urdigere,Karnataka,13.3406,77.2303,4
IN/572141,Y N Koskote,Karnataka,13.3406,77.2303,
IN/572142,Yediyur,Karnataka,13.3406,77.2303,
IN/572145,Nagavalli (Tmr),Karnataka,13.3406,77.2303,
IN/572149,Kadagathur,Karnataka,13.3406,77.2303,
IN/572150,Halenahalli,Karnataka,13.6417,76.9293,
IN/572152,Madalur,Karnataka,13.6417,76.9293,
IN/572154,Teetha,Karnataka,13.6417,76.9293,
IN/572159,Baddur Farm,Karnataka,13.6417,76.9293,
IN/572160,Yelanadu,Karnataka,13.9033,76.4917,
IN/572161,Vanivilasapura,Karnataka,13.9033,76.4917,4
IN/572162,Yedavanne,Karnataka,13.9033,76.4917,
IN/572164,Rampura (Tmr),Karnataka,13.9033,76.4917,
IN/572169,Nadur,Karnataka,13.9033,76.4917,
IN/572171,Ujjine,Karnataka,13.6417,76.9293,
IN/572173,Iirkasandra,Karnataka,13.6417,76.9293,
IN/572201,Gandhi Nagar Tiptur,Karnataka,13.5225,76.7483,
IN/572202,K R Extn Tiptur,Karnataka,13.5225,76.7483,
IN/572213,Chandrasekharapura,Karnataka,13.5225,76.7483,
IN/572215,Dandinashivara,Karnataka,13.5225,76.7483,
IN/572219,Kabada (Tumkur),Karnataka,13.5225,76.7483,
IN/572225,Sampige (Tmr),Karnataka,13.5225,76.7483,
IN/572232,Yelanadu (Tmr),Karnataka,13.5225,76.7483,
IN/572234,Echanur,Karnataka,13.5225,76.7483,
IN/572239,Hagalvadi,Karnataka,13.5225,76.7483,4
IN/572240,Halepalya,Karnataka,13.5225,76.7483,
IN/573111,Bagur (Hassan),Karnataka,13.1531,76.3067,
IN/573116,Channarayapatna (Hassan),Karnataka,13.1531,76.3067,
IN/573119,Gandasi,Karnataka,13.1531,76.3067,4
IN/573121,Halebeedu,Karnataka,13.3033,76.0597,
IN/573125,Javagal,Karnataka,13.3033,76.0597,4
IN/573126,Jayachmrajpura,Karnataka,13.3033,76.0597,
IN/573127,Kadamane,Karnataka,13.3033,76.0597,
IN/573129,K Hoskote,Karnataka,13.3033,76.0597,
IN/573132,Panchanahalli,Karnataka,12.964,76.0939,
IN/573133,Ramnathapura,Karnataka,12.964,76.0939,
IN/573134,Saklashpur,Karnataka,12.964,76.0939,
IN/573140,Agrahara Belaguli,Karnataka,12.6908,76.0842,
IN/573146,Magge,Karnataka,12.6908,76.0842,4
IN/573151,Jambur,Karnataka,12.5167,75.8,4
IN/573152,Rajansiriyur,Karnataka,12.5167,75.8,
IN/573157,Udavara,Karnataka,12.5167,75.8,
IN/573160,Aggunda,Karnataka,13.1561,76.2189,
IN/573162,Bageshapura,Karnataka,13.1561,76.2189,4
IN/573201,Gandhi Bazar,Karnataka,12.8696,76.1717,
IN/573210,Halli Mysore,Karnataka,12.6558,76.26,4
IN/573216,Hagare,Karnataka,12.8696,76.1717,
IN/573218,Palya,Karnataka,12.8696,76.1717,
IN/573219,Salagame,Karnataka,13.0833,76.0833,4
IN/573221,Bage,Karnataka,12.8696,76.1717,
IN/574101,Ajekar,Karnataka,12.8,74.85,
IN/574102,Bailur (Puttur),Karnataka,12.8,74.85,
IN/574106,Uliargoli,Karnataka,12.8,74.85,
IN/574111,Padubidri,Karnataka,12.8,74.85,
IN/574112,Palimar,Karnataka,12.8,74.85,
IN/574115,Ullargoli,Karnataka,12.8,74.85,
IN/574117,Uchila Bada,Karnataka,12.8,74.85,
IN/574118,Udyavara,Karnataka,12.8,74.85,
IN/574122,Bajegoli,Karnataka,12.8,74.85,
IN/574123,Mala,Karnataka,12.8,74.85,
IN/574128,Irvathur,Karnataka,12.8,74.85,
IN/574131,Admar,Karnataka,12.8,74.85,
IN/574138,Nandikur,Karnataka,12.8,74.85,
IN/574140,Paniyur,Karnataka,12.8,74.85,
IN/574141,Aikala,Karnataka,12.8,74.85,
IN/574143,Farangipet,Karnataka,12.8,74.85,
IN/574144,Ganjimutt,Karnataka,12.8,74.85,
IN/574146,Haleangady,Karnataka,12.8,74.85,
IN/574159,Ullal,Karnataka,12.8,74.85,4
IN/574160,Derlakatte,Karnataka,12.8,74.85,
IN/574165,Malalipanchayat,Karnataka,12.8,74.85,
IN/574178,Nadugallu,Karnataka,12.8,74.85,
IN/574184,Talapady,Karnataka,12.8,74.85,
IN/574192,Jeepinamogru,Karnataka,12.8,74.85,
IN/574195,Panjinadka,Karnataka,12.8,74.85,
IN/574202,Darbe,Karnataka,14.2467,76.2933,
IN/574220,Kabaka,Karnataka,14.2467,76.2933,
IN/574221,Kadaba (Puttur),Karnataka,14.2467,76.2933,
IN/574224,Madanthyar,Karnataka,14.2467,76.2933,
IN/574231,Pane Mangalore,Karnataka,12.6833,75.4833,
IN/574232,Panja,Karnataka,12.6833,75.4833,4
IN/574234,Sampaje,Karnataka,12.6833,75.4833,
IN/574240,Ujire,Karnataka,16.1917,77.8333,
IN/574241,Uppinangady,Karnataka,16.1917,77.8333,
IN/574242,Venur,Karnataka,13.0167,75.1333,4
IN/574244,Palli,Karnataka,19.3667,80.5333,4
IN/574245,Aiyarnad,Karnataka,16.1917,77.8333,
IN/574246,Ajjavara,Karnataka,16.1917,77.8333,
IN/574252,Idikiku,Karnataka,14.2467,76.2933,
IN/574255,Jalsur,Karnataka,14.2467,76.2933,
IN/574259,Panjee,Karnataka,14.2467,76.2933,
IN/574260,Adyandka,Karnataka,14.2467,76.2933,
IN/574275,Sampige (D K),Karnataka,13.1167,74.9167,
IN/574276,Veerakamba,Karnataka,13.1167,74.9167,
IN/574277,Kadandale,Karnataka,13.1167,74.9167,4
IN/574278,Palaoka,Karnataka,13.1167,74.9167,
IN/574283,Saji Pamunnur,Karnataka,14.2467,76.2933,
IN/574286,Bajathur,Karnataka,14.2467,76.2933,
IN/574289,Paramogru,Karnataka,14.2467,76.2933,
IN/574290,Charmadi,Karnataka,13.05,75.4,4
IN/574294,Laila,Karnataka,13.05,75.4,
IN/574295,Machina,Karnataka,13.05,75.4,
IN/574296,Panakaje,Karnataka,13.05,75.4,
IN/574301,Ira,Karnataka,14.0056,76.0528,
IN/574302,Kadeshwalya,Karnataka,14.0056,76.0528,
IN/574304,Iianthila,Karnataka,14.0056,76.0528,
IN/574315,Nadugallu,Karnataka,14.0056,76.0528,
IN/574318,Madavu,Karnataka,14.0056,76.0528,
IN/574319,Sajipamudu,Karnataka,14.0056,76.0528,
IN/574334,Badagannur,Karnataka,14.0056,76.0528,
IN/574501,Idu,Karnataka,14.0056,76.0528,
IN/574502,Nallur,Karnataka,14.1,75.8833,
IN/574507,Bajal,Karnataka,14.0056,76.0528,
IN/574508,Vamanjoor,Karnataka,14.0056,76.0528,
IN/575001,Car Street,Karnataka,13.3666,76.171,
IN/575002,Nagori,Karnataka,13.3666,76.171,
IN/575003,Gandhi Nagar,Karnataka,13.3666,76.171,
IN/575004,Kadrihills,Karnataka,13.3666,76.171,
IN/575007,Padil,Karnataka,13.3666,76.171,
IN/575009,Adyar,Karnataka,13.3666,76.171,
IN/575010,Panambur,Karnataka,13.3666,76.171,
IN/575011,Baikampady,Karnataka,13.3666,76.171,
IN/576101,Udupi H O,Karnataka,13.25,74.75,
IN/576103,Adi Udupi,Karnataka,13.25,74.75,
IN/576104,Kadekar,Karnataka,13.25,74.75,
IN/576122,Pangala,Karnataka,13.25,74.75,4
IN/576123,Parkala,Karnataka,13.25,74.75,
IN/576126,Nandalike,Karnataka,13.25,74.75,
IN/576128,Sacherigudde,Karnataka,13.25,74.75,
IN/576135,Patla,Karnataka,13.25,74.75,
IN/576136,Badaga Bettu,Karnataka,13.25,74.75,
IN/576138,Innanje,Karnataka,13.25,74.75,
IN/576142,Tenkabettu,Karnataka,13.25,74.75,
IN/576144,Varanga,Karnataka,13.25,74.75,
IN/576146,Inna,Karnataka,13.25,74.75,
IN/576150,Chara,Karnataka,13.25,74.75,
IN/576201,Gandhi Maidan,Karnataka,13.675,74.7083,
IN/576214,Yedthari,Karnataka,13.65,74.6667,
IN/576216,Ganguli,Karnataka,13.65,74.6667,4
IN/576225,Saligrama (D K),Karnataka,13.675,74.7083,
IN/576230,Tallur (Belgaum),Karnataka,13.7,74.75,
IN/576231,Takkatte,Karnataka,13.7,74.75,
IN/576232,Uppunda,Karnataka,13.7,74.75,
IN/576233,Vandse,Karnataka,13.7,74.75,4
IN/576236,Airody,Karnataka,13.7,74.75,
IN/576243,Parampalli,Karnataka,13.675,74.7083,
IN/576248,Hakladi,Karnataka,13.675,74.7083,
IN/576250,Haladi,Karnataka,13.675,74.7083,
IN/576252,Hallihole,Karnataka,13.675,74.7083,
IN/576260,Salikere,Karnataka,13.675,74.7083,
IN/576262,Nada,Karnataka,13.675,74.7083,
IN/576263,Naikur,Karnataka,13.675,74.7083,
IN/576266,Saibrakatte,Karnataka,13.675,74.7083,
IN/576271,Baidabettu,Karnataka,13.675,74.7083,
IN/576275,Paduvari,Karnataka,13.675,74.7083,
IN/576276,Achlady,Karnataka,13.675,74.7083,
IN/577001,Davangere,Karnataka,14.4667,75.9167,4
IN/577002,Jayachamarajendra Extn,Karnataka,14.4667,75.9167,
IN/577003,Davangere Mills,Karnataka,14.4667,75.9167,
IN/577004,Davangere Southern Extn,Karnataka,14.4667,75.9167,
IN/577115,B R Project,Karnataka,13.2667,75.7167,
IN/577117,C R Station,Karnataka,13.2667,75.7167,
IN/577122,Javali,Karnataka,13.2667,75.7167,
IN/577123,Jayapura,Karnataka,13.2667,75.7167,
IN/577128,Lakkavalli,Karnataka,13.2667,75.7167,
IN/577134,Agrahara Narasimha Rajpur,Karnataka,13.2667,75.7167,
IN/577135,Sakrepatna,Karnataka,13.2667,75.7167,
IN/577140,Yadgati,Karnataka,13.2667,75.7167,
IN/577147,Devaladakere,Karnataka,13.2667,75.7167,
IN/577154,Jannapura,Karnataka,13.2667,75.7167,
IN/577155,K Bidre,Karnataka,13.2667,75.7167,
IN/577156,Kaimara,Karnataka,13.2667,75.7167,
IN/577159,Lokanathapura,Karnataka,13.2667,75.7167,
IN/577160,Magundi,Karnataka,13.2667,75.7167,
IN/577164,K B Halu,Karnataka,13.2667,75.7167,
IN/577168,Uddeboranahalli,Karnataka,13.2667,75.7167,
IN/577169,Sampige Khan,Karnataka,13.2667,75.7167,
IN/577174,Vastara,Karnataka,13.2667,75.7167,4
IN/577175,Devanur (Kadur),Karnataka,13.2667,75.7167,
IN/577177,Addagadde,Karnataka,13.2667,75.7167,
IN/577201,Vinobanagar Shimoga,Karnataka,13.9083,75.85,
IN/577202,Rajendrapete,Karnataka,13.9083,75.85,
IN/577213,Channageri Town,Karnataka,13.9083,75.85,
IN/577221,Nallur,Karnataka,14.1,75.8833,4
IN/577228,Tarikere,Karnataka,13.7167,75.8167,4
IN/577234,Devarahalli,Karnataka,13.9083,75.85,
IN/577236,Issur,Karnataka,13.9083,75.85,
IN/577246,Yedur,Karnataka,13.9083,75.85,
IN/577301,Jannapura,Karnataka,14.0746,75.8228,
IN/577303,Old Town,Karnataka,14.0746,75.8228,
IN/577401,Gandhi Nagar Sagar,Karnataka,14.0458,75.1917,
IN/577411,Agumbe,Karnataka,14.5833,75.0667,
IN/577415,Devangi,Karnataka,14.5833,75.0667,
IN/577419,Jade,Karnataka,14.5833,75.0667,4
IN/577425,Nagar,Karnataka,13.8333,75.0167,4
IN/577434,Ulabi,Karnataka,14.0458,75.1917,
IN/577435,S V P Colony,Karnataka,14.0458,75.1917,
IN/577437,Chakra Nagar,Karnataka,14.0458,75.1917,
IN/577444,Linganamakki,Karnataka,14.1667,74.85,4
IN/577447,Udagani,Karnataka,13.8833,75.3417,
IN/577501,Jayachanrajendra Extn,Karnataka,14.2473,76.3193,
IN/577511,Adivala,Karnataka,14.2473,76.3193,
IN/577514,Bada,Karnataka,14.2473,76.3193,
IN/577515,Bagur (Chitradurga),Karnataka,14.2473,76.3193,
IN/577522,Challakere,Karnataka,14.3167,76.65,4
IN/577525,Hadadi,Karnataka,14.3667,75.9,4
IN/577528,Jagalur Nehru Road,Karnataka,14.5333,76.35,
IN/577537,Obala Pura,Karnataka,14.2473,76.3193,
IN/577538,Parqasurampura,Karnataka,14.2473,76.3193,
IN/577539,Ramagiri,Karnataka,14.2473,76.3193,
IN/577540,Ramapura (Ctl),Karnataka,14.01,76.3482,
IN/577543,Tallak,Karnataka,14.4667,76.6833,4
IN/577547,Ajjampura Bazar,Karnataka,14.01,76.3482,
IN/577548,Kadur,Karnataka,13.5533,76.0131,4
IN/577558,Aimangala,Karnataka,14.2473,76.3193,
IN/577560,Yeilambalase,Karnataka,14.2473,76.3193,
IN/577565,Nalkudre,Karnataka,14.2473,76.3193,
IN/577567,Laxmisagara,Karnataka,14.2473,76.3193,
IN/577569,Ranajogihalli,Karnataka,14.2473,76.3193,
IN/577571,N Mahadevapura,Karnataka,14.2473,76.3193,
IN/577572,Nagasamudra,Karnataka,14.2473,76.3193,
IN/577575,Vasana,Karnataka,14.2473,76.3193,
IN/577580,Malalkere,Karnataka,14.2473,76.3193,
IN/577585,Abbinahole,Karnataka,14.2473,76.3193,
IN/577587,Gannaikanahalli,Karnataka,14.2473,76.3193,
IN/577590,Nanditavare,Karnataka,14.2473,76.3193,
IN/577593,Kadrinayakanahalli,Karnataka,14.2473,76.3193,
IN/577601,Rajarama Colony,Karnataka,14.0746,75.8228,
IN/577602,Yantrapura,Karnataka,14.0746,75.8228,
IN/580001,Tejaswinagar,Karnataka,16.2928,76.0442,
IN/580008,Mahatma,Karnataka,16.2928,76.0442,
IN/580020,Ganeshpet,Karnataka,16.2928,76.0442,
IN/580024,Old Hubli,Karnataka,16.2928,76.0442,
IN/580211,Hallihal,Karnataka,16.2928,76.0442,
IN/580212,Adargunchi,Karnataka,16.2928,76.0442,
IN/580215,Yarguppi,Karnataka,16.2928,76.0442,
IN/581101,Adur,Karnataka,14.7667,75.25,4
IN/581105,Garag,Karnataka,15.5833,74.95,4
IN/581128,Agadi,Karnataka,15.175,75.1,
IN/581129,Jagabet,Karnataka,15.175,75.1,
IN/581132,Devagiri,Karnataka,15.175,75.1,
IN/581134,Kabbur (Dharwad),Karnataka,15.175,75.1,
IN/581137,Yelgach,Karnataka,15.175,75.1,
IN/581142,Itagi Rbn,Karnataka,15.175,75.1,
IN/581145,Chalgeri,Karnataka,15.175,75.1,
IN/581146,Kadur (Dharwad),Karnataka,15.175,75.1,
IN/581153,Kaginelli,Karnataka,15.175,75.1,
IN/581156,Kadarmandalgi,Karnataka,15.175,75.1,
IN/581157,Saidenur,Karnataka,15.175,75.1,
IN/581160,Yalivigi,Karnataka,15.175,75.1,
IN/581163,Maknur,Karnataka,15.175,75.1,
IN/581174,Kadkol,Karnataka,15.175,75.1,
IN/581175,Tadkod,Karnataka,15.175,75.1,
IN/581179,Kajjari,Karnataka,15.175,75.1,
IN/581183,Ijarilakhamapur,Karnataka,15.175,75.1,
IN/581190,Makari,Karnataka,15.175,75.1,
IN/581206,Uppinbetgeri,Karnataka,15.1333,75.1167,
IN/581208,Halgeri (Dwd),Karnataka,15.1333,75.1167,
IN/581212,Tadas,Karnataka,15.1333,75.1167,4
IN/581214,Tavaremellihalli,Karnataka,15.1333,75.1167,
IN/581227,Baichaballi,Karnataka,15.1333,75.1167,
IN/581228,Ingalgi,Karnataka,15.1333,75.1167,
IN/581230,Ganjigatti,Karnataka,15.1333,75.1167,
IN/581231,Ingalhalli,Karnataka,15.1333,75.1167,
IN/581232,Tabakadhonithalli,Karnataka,15.1333,75.1167,
IN/581233,Chabbi (Hubli),Karnataka,15.1333,75.1167,
IN/581234,Waruri,Karnataka,15.1333,75.1167,
IN/581302,Baitkhol,Karnataka,15.0567,74.4767,
IN/581304,Nandangadda,Karnataka,15.0567,74.4767,
IN/581306,Habbuvada,Karnataka,15.0567,74.4767,
IN/581323,Chandavar,Karnataka,15.1611,74.5389,
IN/581325,Dandeli,Karnataka,15.2667,74.6167,4
IN/581328,Halge,Karnataka,14.8833,74.2333,4
IN/581329,Haliyal Bazar,Karnataka,15.3333,74.7667,
IN/581337,Idgundi,Karnataka,14.9,74.6667,4
IN/581344,Madangere,Karnataka,14.9,74.1,
IN/581345,Majali,Karnataka,14.9,74.1,4
IN/581352,Tergaon,Karnataka,15.0567,74.4767,
IN/581357,Vandige,Karnataka,15.0567,74.4767,
IN/581358,Yekkambi,Karnataka,15.0567,74.4767,
IN/581362,Dandeli Paper Mills,Karnataka,15.0567,74.4767,
IN/581365,Ganeshgudi,Karnataka,15.0567,74.4767,
IN/581368,Salgol,Karnataka,15.0567,74.4767,
IN/581372,Magod Colony,Karnataka,15.0567,74.4767,
IN/581374,Gandhi Nagar Kumta,Karnataka,15.0567,74.4767,
IN/581376,Halgeri (Sirsi),Karnataka,15.0567,74.4767,
IN/581377,Madgeri,Karnataka,15.0567,74.4767,
IN/581379,Yadaga,Karnataka,15.0567,74.4767,
IN/581381,Bachanki,Karnataka,15.0567,74.4767,
IN/581389,Ajjibal,Karnataka,15.0567,74.4767,
IN/581390,Vandur,Karnataka,15.0567,74.4767,
IN/581393,Nagre,Karnataka,15.0567,74.4767,
IN/581394,Valgalli,Karnataka,15.0567,74.4767,
IN/581401,Sahyadri Colony,Karnataka,14.5917,74.375,
IN/581413,Agsur,Karnataka,14.6667,74.4,4
IN/581421,Kaikini,Karnataka,14.5917,74.375,
IN/581422,Bailur (Karwar),Karnataka,14.5917,74.375,
IN/581428,Isloor,Karnataka,14.5917,74.375,
IN/581429,Dasankop,Karnataka,14.5917,74.375,
IN/581436,Vajralli,Karnataka,14.5167,74.35,
IN/581437,Tadri,Karnataka,14.5167,74.35,4
IN/581441,Baad,Karnataka,14.5917,74.375,
IN/581443,Kagal,Karnataka,14.5917,74.375,
IN/581448,Janmane,Karnataka,14.5917,74.375,
IN/581449,Indoor,Karnataka,14.5917,74.375,
IN/582101,Gadag Bazar,Karnataka,15.3875,75.7333,
IN/582102,Gadag Health Camp,Karnataka,15.3875,75.7333,
IN/582111,Abbigere,Karnataka,15.3875,75.7333,
IN/582113,Dambal,Karnataka,15.3,75.7667,4
IN/582114,Gajendragad,Karnataka,15.7333,75.9833,4
IN/582115,Lakkundi,Karnataka,15.3833,75.7167,4
IN/582116,Lakshmeshwar,Karnataka,15.1333,75.4667,4
IN/582127,Jakkali,Karnataka,15.3875,75.7333,
IN/582128,Halkeri,Karnataka,15.3875,75.7333,
IN/582142,Chabbi (Gadag),Karnataka,15.3875,75.7333,
IN/582143,Magadi (Gadag),Karnataka,15.3875,75.7333,
IN/582146,Vadavi,Karnataka,15.3875,75.7333,
IN/582207,Nagrund H O,Karnataka,15.3875,75.7333,
IN/582216,Yavgal,Karnataka,15.3875,75.7333,
IN/582227,Hallikeri,Karnataka,15.3875,75.7333,
IN/582228,Hadli,Karnataka,15.3875,75.7333,
IN/582230,Rajur (Nargund),Karnataka,15.3875,75.7333,
IN/582241,Itagi Nargund,Karnataka,15.3875,75.7333,
IN/582243,Jaknur,Karnataka,15.3875,75.7333,
IN/583101,Temple Street,Karnataka,15.3167,76.7167,
IN/583102,Temple Street,Karnataka,15.3167,76.7167,
IN/583111,Challakurki,Karnataka,15.1,76.55,
IN/583112,Deogeri,Karnataka,15.1,76.55,
IN/583113,Emmiganur,Karnataka,15.1,76.55,
IN/583119,Sandur,Karnataka,15.1,76.55,4
IN/583121,Sadasivanagar,Karnataka,15.5333,76.8833,
IN/583122,Tekkalakota,Karnataka,15.5333,76.8833,4
IN/583129,Devalapura (Bellary),Karnataka,15.5333,76.8833,
IN/583135,Babujinagar Kudligi,Karnataka,15.3167,76.7167,
IN/583136,Oojein,Karnataka,15.3167,76.7167,
IN/583137,Telgi,Karnataka,15.3167,76.7167,
IN/583138,Hagarir S,Karnataka,15.3167,76.7167,
IN/583140,Desnur Sugar Factory,Karnataka,15.3167,76.7167,
IN/583146,Uchangidurga,Karnataka,15.3167,76.7167,
IN/583147,Ramassagara,Karnataka,15.3167,76.7167,
IN/583148,Bagali,Karnataka,15.3167,76.7167,
IN/583212,Hagari Bommanahalli Town,Karnataka,15.3417,76.5167,
IN/583213,Halavagalu,Karnataka,15.3417,76.5167,
IN/583220,Ittigi,Karnataka,15.3417,76.5167,
IN/583223,Papinayakanahalli,Karnataka,15.25,76.5,4
IN/583224,Thambrahalli,Karnataka,15.3417,76.5167,
IN/583227,Gangavati,Karnataka,15.4333,76.5333,4
IN/583231,Ganj,Karnataka,15.3417,76.5167,
IN/583235,Waddarhatti (Koppal),Karnataka,15.3417,76.5167,
IN/583236,Yelbruga,Karnataka,15.3417,76.5167,
IN/583238,Bachigondanahalli,Karnataka,15.3417,76.5167,
IN/583245,Gadiganur,Karnataka,15.3417,76.5167,
IN/583251,Halgera,Karnataka,15.3417,76.5167,
IN/583256,Tadkal (Koppal),Karnataka,15.3417,76.5167,
IN/583258,Rajoor,Karnataka,15.3417,76.5167,
IN/583260,Agalkera,Karnataka,15.3417,76.5167,
IN/583265,Itagi Koppal,Karnataka,15.3417,76.5167,
IN/583269,Dasmpur,Karnataka,15.3417,76.5167,
IN/584101,Salem Road,Karnataka,16.1583,76.8583,
IN/584102,Raichur Mukkaramganj,Karnataka,16.1583,76.8583,
IN/584111,Deodurg Town,Karnataka,16.1583,76.8583,
IN/584113,Gabbur (Raichur),Karnataka,16.1583,76.8583,
IN/584116,Jalahlli Raichur,Karnataka,16.1583,76.8583,
IN/584117,Jawalgere,Karnataka,16.1583,76.8583,
IN/584122,Lingasugur,Karnataka,16.1583,76.8583,
IN/584131,Tavargira,Karnataka,16.1583,76.8583,
IN/584143,Javalgere,Karnataka,16.1583,76.8583,
IN/584144,Rabbankal,Karnataka,16.1583,76.8583,
IN/584148,Ramdurga (Raichur),Karnataka,16.1583,76.8583,
IN/584154,Bagalwad,Karnataka,16.05,76.8833,4
IN/584155,Chalgere,Karnataka,16.1583,76.8583,
IN/584156,Galag,Karnataka,16.2667,76.8333,4
IN/584160,Idapnur,Karnataka,16.1583,76.8583,
IN/584165,Salgunda,Karnataka,16.1583,76.8583,
IN/584201,Deosugur,Karnataka,16.1583,76.8583,
IN/585103,Bahamanipura,Karnataka,17.78,77.2008,
IN/585201,Yadgiri Town,Karnataka,19.2889,76.65,
IN/585202,Yadgiri Station,Karnataka,19.2889,76.65,
IN/585212,Gangapur,Karnataka,23.8667,75.9833,4
IN/585218,Nalwar,Karnataka,16.9333,76.9833,4
IN/585221,Saidapur(Gulbarga),Karnataka,17.0667,76.9833,
IN/585225,Wadi,Karnataka,17.0667,76.9833,4
IN/585239,Bagewadi,Karnataka,19.2889,76.65,
IN/585240,Degaon,Karnataka,19.2889,76.65,
IN/585248,Yegol,Karnataka,19.2889,76.65,
IN/585249,Kadachur,Karnataka,19.2889,76.65,
IN/585250,Adk,Karnataka,19.2889,76.65,
IN/585253,Yalgi,Karnataka,19.2889,76.65,
IN/585255,Halkatta,Karnataka,19.2889,76.65,
IN/585260,Bagada,Karnataka,19.2889,76.65,
IN/585264,Rakulgi,Karnataka,19.2889,76.65,
IN/585265,Gabbur (Gulbarga),Karnataka,19.2889,76.65,
IN/585271,Yelasingi,Karnataka,19.2889,76.65,
IN/585273,Hallisagar,Karnataka,19.2889,76.65,
IN/585274,Madiyal,Karnataka,19.2889,76.65,
IN/585276,Chandarki,Karnataka,19.2889,76.65,
IN/585278,Udachan,Karnataka,19.2889,76.65,
IN/585280,Itkal,Karnataka,19.2889,76.65,
IN/585282,Madanhipparga,Karnataka,19.2889,76.65,
IN/585284,Gajarkot,Karnataka,19.2889,76.65,
IN/585291,Rajankollur,Karnataka,19.2889,76.65,
IN/585301,Afzalpur,Karnataka,17.2,76.35,4
IN/585305,Chandapur,Karnataka,17.2,76.35,
IN/585308,Farhatabad,Karnataka,17.2,76.35,
IN/585311,Kadganchi,Karnataka,15.5969,77.0629,
IN/585315,Madhugiri,Karnataka,13.6606,77.2092,4
IN/585316,Mahagaon,Karnataka,17.5333,76.9167,4
IN/585319,Naikal,Karnataka,15.5969,77.0629,
IN/585321,Ramasamudra,Karnataka,16.8667,76.5333,
IN/585323,Sagar (Gulbarge),Karnataka,16.8667,76.5333,
IN/585325,Yedrami,Karnataka,16.8667,76.5333,4
IN/585331,Rajeshwar,Karnataka,17.0833,76.8,
IN/585335,Ganwar,Karnataka,17.0833,76.8,
IN/585336,Enoli,Karnataka,17.0833,76.8,
IN/585337,Firozabad,Karnataka,17.0833,76.8,4
IN/585343,Tadkal (Gulbarga),Karnataka,18.5833,78.9167,
IN/585344,Dandoti,Karnataka,17.1833,77.1,4
IN/585345,Tengli,Karnataka,18.5833,78.9167,
IN/585349,Partapur,Karnataka,19.9833,80.7333,4
IN/585352,Hallikhed (K),Karnataka,17.0729,77.3775,
IN/585354,Rajola,Karnataka,17.0729,77.3775,
IN/585358,Baddal,Karnataka,17.0729,77.3775,
IN/585363,Padasvali,Karnataka,17.0729,77.3775,
IN/585366,Ajjeri,Karnataka,17.0729,77.3775,
IN/585372,Nagnur (Gulbarga),Karnataka,17.0729,77.3775,
IN/585374,Salgera,Karnataka,17.0729,77.3775,
IN/585375,Talmadgi,Karnataka,17.0729,77.3775,
IN/585377,Chandankera,Karnataka,17.0729,77.3775,
IN/585378,Pattan,Karnataka,17.0729,77.3775,
IN/585403,Gandhi Ganj,Karnataka,17.9917,77.4083,
IN/585413,Halbarga,Karnataka,17.9833,77.3333,4
IN/585414,Hallikhed,Karnataka,17.9833,77.3333,
IN/585415,Hallikhed S F,Karnataka,17.9833,77.3333,
IN/585423,Janwada,Karnataka,18,77.4833,4
IN/585431,Saigaon,Karnataka,17.9917,77.4083,
IN/585436,Thanakushnoor,Karnataka,17.9917,77.4083,
IN/585441,Halsitugaon,Karnataka,17.9917,77.4083,
IN/585442,Lakhangaon,Karnataka,17.9917,77.4083,
IN/586102,Sainik School,Karnataka,16.7095,76.0762,
IN/586111,Agarkhed,Karnataka,17.3167,76.0667,4
IN/586113,Bableshwar,Karnataka,17.3167,76.0667,
IN/586124,Nalatwad,Karnataka,16.2167,76.1,
IN/586129,Tangadgi,Karnataka,16.2167,76.1,4
IN/586134,Nagral,Karnataka,16.1,76.3167,4
IN/586141,Halagani,Karnataka,16.8667,76.35,
IN/586143,Chandkavthe,Karnataka,16.8667,76.35,
IN/586144,Yankanchi,Karnataka,16.8667,76.35,4
IN/586152,Ukli,Karnataka,16.7167,75.8833,4
IN/586153,Hadagali,Karnataka,16.8167,75.95,4
IN/586154,Madabhavi,Karnataka,16.7667,75.9167,
IN/586158,Yargal,Karnataka,16.7667,75.9167,
IN/586161,Nagthan,Karnataka,16.9333,75.8667,4
IN/586162,Tadvalga,Karnataka,16.9333,75.8667,
IN/586163,Jalwad,Karnataka,16.9333,75.8667,
IN/586164,Yalwar,Karnataka,16.9333,75.8667,
IN/586205,Chandchar,Karnataka,16.9222,76.0056,
IN/586206,Devangaon,Karnataka,16.9222,76.0056,
IN/586207,Halasangi,Karnataka,16.9222,76.0056,
IN/586209,Indi H O,Karnataka,16.9222,76.0056,
IN/586211,Lachyan,Karnataka,17.0583,76,
IN/586214,Tallikoti Bazar,Karnataka,17.0583,76,
IN/586215,Tamba,Karnataka,16.9833,75.9833,4
IN/586217,Salotgi,Karnataka,17.1333,76.0167,4
IN/586220,Vandal,Karnataka,16.9222,76.0056,
IN/586222,Ahirsang,Karnataka,16.9222,76.0056,
IN/586228,Babur,Karnataka,16.9222,76.0056,
IN/586235,Ingleshwar,Karnataka,16.65,76.0167,4
IN/586236,Jagjivan,Karnataka,16.65,76.0167,
IN/586237,Lonibudruk,Karnataka,16.65,76.0167,
IN/586247,Jamdaddi,Karnataka,16.9222,76.0056,
IN/587101,Bagalkot Bazar,Karnataka,15.7583,75.625,
IN/587102,Bagalkot Grbc Colony,Karnataka,15.7583,75.625,
IN/587103,Bagalkot Housing Colony,Karnataka,15.7583,75.625,
IN/587117,Galgali,Karnataka,15.7583,75.625,
IN/587122,Lokapur,Karnataka,16.1667,75.35,4
IN/587125,Likal,Karnataka,16.1667,75.35,
IN/587134,Halagali,Karnataka,16.3333,75.4833,4
IN/587138,Aihole,Karnataka,16.3333,75.4833,
IN/587141,Sangam,Karnataka,16.2,76.05,4
IN/587143,Hallur,Karnataka,14.3333,75.6167,4
IN/587144,Jalihal,Karnataka,15.2667,75.8333,
IN/587148,Nandawadgi,Karnataka,15.2667,75.8333,
IN/587201,Badami H.O.,Karnataka,15.9067,75.51,
IN/587210,Nandikeshwar,Karnataka,15.9067,75.51,
IN/587211,Pattadakal,Karnataka,15.9067,75.51,
IN/587301,Jamkhandi B S Road,Karnataka,16.5,75.05,
IN/587302,Jamkhandi Giri Shnagar,Karnataka,16.5,75.05,
IN/587312,Mahalingapur,Karnataka,16.5,75.05,
IN/587314,Rabkhavi,Karnataka,16.5,75.05,
IN/587315,Terdal,Karnataka,16.5,75.05,4
IN/587316,Sameerwadi,Karnataka,16.5,75.05,
IN/587325,Saidapur (Bagalkot),Karnataka,16.5,75.05,
IN/587326,Halingali,Karnataka,16.5,75.05,
IN/587329,Yadhalli,Karnataka,16.5,75.05,
IN/590002,Kadolkargalli Corner,Karnataka,16.1727,74.8924,
IN/590003,Extn,Karnataka,16.1727,74.8924,
IN/590005,Madhavapur,Karnataka,16.1727,74.8924,
IN/590006,East H O,Karnataka,16.1727,74.8924,
IN/591102,Bailhongal H.O.,Karnataka,15.8767,74.9133,
IN/591108,Vijayanagar,Karnataka,15.8767,74.9133,
IN/591112,Itgi,Karnataka,15.8767,74.9133,
IN/591116,Malaprabha Dam Site,Karnataka,15.8767,74.9133,
IN/591120,Nandgad,Karnataka,15.5833,74.5833,4
IN/591122,Fachhapur,Karnataka,15.8056,74.7389,
IN/591123,Ramdurg (Belgaum),Karnataka,15.8056,74.7389,
IN/591124,Sambra,Karnataka,15.8667,74.6167,4
IN/591125,Sampgaon,Karnataka,15.8056,74.7389,
IN/591128,Uchgaon,Karnataka,15.8056,74.7389,
IN/591129,Yargatti,Karnataka,15.9667,75.0167,4
IN/591130,Salahalli,Karnataka,16.2333,75.1667,
IN/591131,Parishwad,Karnataka,16.2333,75.1667,
IN/591136,Yadwad,Karnataka,16.2333,75.1667,4
IN/591140,Devalapur (Belgaum),Karnataka,15.8767,74.9133,
IN/591141,Gandhi Gwad,Karnataka,15.8767,74.9133,
IN/591142,Halashi,Karnataka,15.8767,74.9133,
IN/591143,Kadoli,Karnataka,15.8767,74.9133,
IN/591146,Yallur,Karnataka,15.8767,74.9133,
IN/591147,Deshnur,Karnataka,15.8767,74.9133,
IN/591149,Bailur (Belgaum),Karnataka,15.8767,74.9133,
IN/591154,Devalatti,Karnataka,15.8767,74.9133,
IN/591155,Halgatti,Karnataka,15.8767,74.9133,
IN/591162,Inamhangal,Karnataka,15.8767,74.9133,
IN/591163,Inchal,Karnataka,15.8767,74.9133,
IN/591164,Kadroli,Karnataka,15.8767,74.9133,
IN/591169,Nagnur (Bailhongl),Karnataka,15.8767,74.9133,
IN/591176,Halga,Karnataka,15.8767,74.9133,
IN/591181,Machhe,Karnataka,15.8767,74.9133,
IN/591196,Ugargol,Karnataka,15.7333,75.1833,4
IN/591219,Galataga,Karnataka,16.61,74.9467,
IN/591222,Kabbur (Belgaum),Karnataka,16.61,74.9467,
IN/591232,Madbhavi,Karnataka,16.5667,74.55,
IN/591238,Pattankudi,Karnataka,16.5667,74.55,
IN/591239,Sadalga,Karnataka,16.5667,74.55,4
IN/591243,Thanahattargi,Karnataka,16.75,75.2333,
IN/591244,Yaksamba,Karnataka,16.75,75.2333,
IN/591245,Yamakanmardi,Karnataka,16.75,75.2333,
IN/591248,Aigali,Karnataka,16.75,75.2333,4
IN/591249,Ingalgoan,Karnataka,16.75,75.2333,
IN/591253,Yadgud,Karnataka,16.3167,74.6,4
IN/591254,Daddi,Karnataka,16.3167,74.6,
IN/591256,Chamakere,Karnataka,16.3167,74.6,
IN/591261,Darur,Karnataka,16.6167,75.0167,4
IN/591265,Telsang,Karnataka,16.8,75.3333,4
IN/591266,Adhalli,Karnataka,16.7083,75.175,
IN/591267,Adi,Karnataka,16.7083,75.175,
IN/591273,Chandur,Karnataka,16.61,74.9467,
IN/591279,Janwad,Karnataka,16.61,74.9467,
IN/591280,Jatrat,Karnataka,16.61,74.9467,
IN/591281,Kadapur,Karnataka,16.61,74.9467,
IN/591293,Nagar Munoli,Karnataka,16.61,74.9467,
IN/591295,Nanadi,Karnataka,16.61,74.9467,
IN/591301,Londa,Karnataka,15.4667,74.5167,4
IN/591303,Ainapura,Karnataka,15.4667,74.5167,
IN/591316,Ugarkhurd,Karnataka,15.4667,74.5167,
IN/591317,Raibag H O,Karnataka,15.4667,74.5167,
IN/591319,Nagnur (Gokak),Karnataka,15.4667,74.5167,
IN/591320,Ugarbudruk,Karnataka,15.4667,74.5167,
IN/591327,Parthanahalli,Karnataka,15.4667,74.5167,
IN/591329,Paramanandawadi,Karnataka,15.4667,74.5167,
IN/591339,Nandi Kurli,Karnataka,15.4667,74.5167,
IN/591501,Sambargi,Karnataka,16.1727,74.8924,
IN/591509,Talakatnal,Karnataka,16.1727,74.8924,
IN/591510,Ullagaddi (Khanapur),Karnataka,16.1727,74.8924,
IN/591511,Walki,Karnataka,16.1727,74.8924,
IN/591512,Yadur,Karnataka,16.1727,74.8924,
IN/591513,Waderhatti (Belgaum),Karnataka,16.1727,74.8924,
IN/591516,Yabaratti,Karnataka,16.1727,74.8924,
IN/591701,Vakkund,Karnataka,16.1727,74.8924,
IN/591702,Kadbi,Karnataka,16.1727,74.8924
